ONEWEB-0520             
1 54138U 22138AB  24182.43369450  .00000043  00000+0  75199-4 0  9999
2 54138  87.9147  87.5936 0002503  73.5595 286.5813 13.19727337 82287
ONEWEB-0521             
1 54139U 22138AC  24182.77012799  .00000094  00000+0  20119-3 0  9995
2 54139  87.9146  87.5190 0001949  85.1824 274.9531 13.19727742 83173
ONEWEB-0522             
1 54140U 22138AD  24182.74959778  .00000013  00000+0  10294-5 0  9997
2 54140  87.9146  87.5250 0002048  74.3531 285.7827 13.19727449 83181
ONEWEB-0523             
1 54141U 22138AE  24182.90153241  .00000154  00000+0  34601-3 0  9999
2 54141  87.9205  56.9494 0001044  97.1443 262.9809 13.20770141 85625
ONEWEB-0524             
1 54142U 22138AF  24182.58745447  .00000047  00000+0  82850-4 0  9990
2 54142  87.9204  57.0153 0001351  44.3804 315.7437 13.20773822 84717
ONEWEB-0525             
1 54143U 22138AG  24182.46528424 -.00000286  00000+0 -74754-3 0  9992
2 54143  87.9148  87.5908 0002334  75.5569 284.5823 13.19725171 82292
ONEWEB-0526             
1 54144U 22138AH  24182.49845798  .00000092  00000+0  19838-3 0  9997
2 54144  87.9147  87.5794 0002055  74.2722 285.8637 13.19727960 82275
ONEWEB-0529             
1 54145U 22138AJ  24182.50161702  .00000014  00000+0  35582-5 0  9996
2 54145  87.9153  87.5947 0002319  73.3058 286.8329 13.19725109 82292
